[{"OBJECT_NAME":"AMAZONIA 1","OBJECT_ID":"2021-015A","EPOCH":"2026-03-09T17:05:01.705920","MEAN_MOTION":14.40836291,"ECCENTRICITY":0.00039353,"INCLINATION":98.4264,"RA_OF_ASC_NODE":142.7385,"ARG_OF_PERICENTER":123.8493,"MEAN_ANOMALY":236.3071,"EPHEMERIS_TYPE":0,"CLASSIFICATION_TYPE":"U","NORAD_CAT_ID":47699,"ELEMENT_SET_NO":999,"REV_AT_EPOCH":26432,"BSTAR":0.00010973552,"MEAN_MOTION_DOT":3.08e-6,"MEAN_MOTION_DDOT":0},{"OBJECT_NAME":"SL-8 R\/B","OBJECT_ID":"1973-098B","EPOCH":"2026-03-09T10:40:03.671616","MEAN_MOTION":14.44823389,"ECCENTRICITY":0.00217611,"INCLINATION":74.0535,"RA_OF_ASC_NODE":66.7993,"ARG_OF_PERICENTER":315.0501,"MEAN_ANOMALY":44.8894,"EPHEMERIS_TYPE":0,"CLASSIFICATION_TYPE":"U","NORAD_CAT_ID":6966,"ELEMENT_SET_NO":999,"REV_AT_EPOCH":74505,"BSTAR":0.00012894968,"MEAN_MOTION_DOT":4.23e-6,"MEAN_MOTION_DDOT":0}]
